GLOBALSTAR M045         
1 25676U 99019A   24162.67035420 -.00000037  00000+0  49646-3 0  9998
2 25676  51.9979 284.1512 0000852 159.9477 334.6042 12.27039991147780
GLOBALSTAR M019         
1 25677U 99019B   24162.88686127 -.00000150  00000+0 -62892-3 0  9993
2 25677  51.9901  27.7756 0000562 350.4626  22.5714 12.13857631140055
GLOBALSTAR M042         
1 25679U 99019D   24162.88933295 -.00000059  00000+0  30780-3 0  9994
2 25679  52.0039  19.1193 0002102 250.0484 123.5954 12.22062900139862
GLOBALSTAR M025         
1 25770U 99031A   24162.91918045 -.00000067  00000+0  68182-5 0  9998
2 25770  51.9833 299.3370 0001327 218.0185 290.9185 11.22550638440019
GLOBALSTAR M049         
1 25771U 99031B   24162.68668702 -.00000045  00000+0  71477-3 0  9990
2 25771  51.9897 315.9683 0003460 114.7692 245.3464 11.12109692 76093
GLOBALSTAR M047         
1 25772U 99031C   24162.72637955 -.00000062  00000+0  21233-3 0  9996
2 25772  51.9859 348.3366 0016075 347.7447  12.2966 11.31921200429045
GLOBALSTAR M052         
1 25773U 99031D   24162.92556847 -.00000003  00000+0  21132-2 0  9991
2 25773  51.9885  69.3217 0002374 290.4639 153.4985 11.15051450437090
